[{"OBJECT_NAME":"JCSAT-13","OBJECT_ID":"2012-023A","EPOCH":"2026-03-14T14:14:01.726656","MEAN_MOTION":1.0027213,"ECCENTRICITY":0.00020961,"INCLINATION":0.0298,"RA_OF_ASC_NODE":258.7165,"ARG_OF_PERICENTER":119.9487,"MEAN_ANOMALY":131.0534,"EPHEMERIS_TYPE":0,"CLASSIFICATION_TYPE":"U","NORAD_CAT_ID":38331,"ELEMENT_SET_NO":999,"REV_AT_EPOCH":5059,"BSTAR":0,"MEAN_MOTION_DOT":-3.57e-6,"MEAN_MOTION_DDOT":0},{"OBJECT_NAME":"VINASAT-2","OBJECT_ID":"2012-023B","EPOCH":"2026-03-14T14:16:16.512384","MEAN_MOTION":1.00272587,"ECCENTRICITY":0.00027421,"INCLINATION":0.0106,"RA_OF_ASC_NODE":206.315,"ARG_OF_PERICENTER":168.1813,"MEAN_ANOMALY":143.6195,"EPHEMERIS_TYPE":0,"CLASSIFICATION_TYPE":"U","NORAD_CAT_ID":38332,"ELEMENT_SET_NO":999,"REV_AT_EPOCH":4571,"BSTAR":0,"MEAN_MOTION_DOT":-3.29e-6,"MEAN_MOTION_DDOT":0},{"OBJECT_NAME":"NIMIQ 6","OBJECT_ID":"2012-026A","EPOCH":"2026-03-14T13:12:37.615968","MEAN_MOTION":1.00271616,"ECCENTRICITY":0.00025055,"INCLINATION":0.0313,"RA_OF_ASC_NODE":269.1058,"ARG_OF_PERICENTER":84.6566,"MEAN_ANOMALY":285.4533,"EPHEMERIS_TYPE":0,"CLASSIFICATION_TYPE":"U","NORAD_CAT_ID":38342,"ELEMENT_SET_NO":999,"REV_AT_EPOCH":4946,"BSTAR":0,"MEAN_MOTION_DOT":-1.74e-6,"MEAN_MOTION_DDOT":0},{"OBJECT_NAME":"ZHONGXING-2A","OBJECT_ID":"2012-028A","EPOCH":"2026-03-14T15:38:57.545088","MEAN_MOTION":1.00269175,"ECCENTRICITY":0.00010642,"INCLINATION":1.2083,"RA_OF_ASC_NODE":85.1937,"ARG_OF_PERICENTER":281.1277,"MEAN_ANOMALY":138.905,"EPHEMERIS_TYPE":0,"CLASSIFICATION_TYPE":"U","NORAD_CAT_ID":38352,"ELEMENT_SET_NO":999,"REV_AT_EPOCH":5035,"BSTAR":0,"MEAN_MOTION_DOT":-2.92e-6,"MEAN_MOTION_DDOT":0},{"OBJECT_NAME":"INTELSAT 19 (IS-19)","OBJECT_ID":"2012-030A","EPOCH":"2026-03-14T15:13:38.741088","MEAN_MOTION":1.00271738,"ECCENTRICITY":0.000293,"INCLINATION":0.0191,"RA_OF_ASC_NODE":141.5566,"ARG_OF_PERICENTER":218.1737,"MEAN_ANOMALY":206.9262,"EPHEMERIS_TYPE":0,"CLASSIFICATION_TYPE":"U","NORAD_CAT_ID":38356,"ELEMENT_SET_NO":999,"REV_AT_EPOCH":4950,"BSTAR":0,"MEAN_MOTION_DOT":-5.7e-7,"MEAN_MOTION_DDOT":0},{"OBJECT_NAME":"ECHOSTAR 17","OBJECT_ID":"2012-035A","EPOCH":"2026-03-14T01:09:13.762944","MEAN_MOTION":1.00271589,"ECCENTRICITY":0.00019709,"INCLINATION":0.0169,"RA_OF_ASC_NODE":142.2371,"ARG_OF_PERICENTER":210.3973,"MEAN_ANOMALY":89.2323,"EPHEMERIS_TYPE":0,"CLASSIFICATION_TYPE":"U","NORAD_CAT_ID":38551,"ELEMENT_SET_NO":999,"REV_AT_EPOCH":5010,"BSTAR":0,"MEAN_MOTION_DOT":-7.6e-7,"MEAN_MOTION_DDOT":0},{"OBJECT_NAME":"METEOSAT-10 (MSG-3)","OBJECT_ID":"2012-035B","EPOCH":"2026-03-14T13:38:42.614592","MEAN_MOTION":1.00269338,"ECCENTRICITY":0.00023537,"INCLINATION":4.4463,"RA_OF_ASC_NODE":61.4124,"ARG_OF_PERICENTER":287.8622,"MEAN_ANOMALY":27.7302,"EPHEMERIS_TYPE":0,"CLASSIFICATION_TYPE":"U","NORAD_CAT_ID":38552,"ELEMENT_SET_NO":999,"REV_AT_EPOCH":4990,"BSTAR":0,"MEAN_MOTION_DOT":-5.0e-8,"MEAN_MOTION_DDOT":0},{"OBJECT_NAME":"SES-5","OBJECT_ID":"2012-036A","EPOCH":"2026-03-13T08:52:38.561664","MEAN_MOTION":1.00273267,"ECCENTRICITY":0.00019334,"INCLINATION":0.0621,"RA_OF_ASC_NODE":308.2644,"ARG_OF_PERICENTER":45.9498,"MEAN_ANOMALY":314.9176,"EPHEMERIS_TYPE":0,"CLASSIFICATION_TYPE":"U","NORAD_CAT_ID":38652,"ELEMENT_SET_NO":999,"REV_AT_EPOCH":4349,"BSTAR":0,"MEAN_MOTION_DOT":3.4e-7,"MEAN_MOTION_DDOT":0},{"OBJECT_NAME":"INTELSAT 20 (IS-20)","OBJECT_ID":"2012-043A","EPOCH":"2026-03-14T13:58:10.747776","MEAN_MOTION":1.00270811,"ECCENTRICITY":0.00025528,"INCLINATION":0.0197,"RA_OF_ASC_NODE":141.5105,"ARG_OF_PERICENTER":28.2735,"MEAN_ANOMALY":280.4276,"EPHEMERIS_TYPE":0,"CLASSIFICATION_TYPE":"U","NORAD_CAT_ID":38740,"ELEMENT_SET_NO":999,"REV_AT_EPOCH":4979,"BSTAR":0,"MEAN_MOTION_DOT":-2.5e-7,"MEAN_MOTION_DDOT":0},{"OBJECT_NAME":"HYLAS 2","OBJECT_ID":"2012-043B","EPOCH":"2026-03-14T13:17:52.112832","MEAN_MOTION":1.00272514,"ECCENTRICITY":0.00025702,"INCLINATION":2.1813,"RA_OF_ASC_NODE":82.2463,"ARG_OF_PERICENTER":297.573,"MEAN_ANOMALY":279.2633,"EPHEMERIS_TYPE":0,"CLASSIFICATION_TYPE":"U","NORAD_CAT_ID":38741,"ELEMENT_SET_NO":999,"REV_AT_EPOCH":4982,"BSTAR":0,"MEAN_MOTION_DOT":-2.57e-6,"MEAN_MOTION_DDOT":0},{"OBJECT_NAME":"INTELSAT 21 (IS-21)","OBJECT_ID":"2012-045A","EPOCH":"2026-03-14T13:22:06.706848","MEAN_MOTION":1.00269182,"ECCENTRICITY":0.00019149,"INCLINATION":0.0268,"RA_OF_ASC_NODE":152.3281,"ARG_OF_PERICENTER":219.8385,"MEAN_ANOMALY":302.5487,"EPHEMERIS_TYPE":0,"CLASSIFICATION_TYPE":"U","NORAD_CAT_ID":38749,"ELEMENT_SET_NO":999,"REV_AT_EPOCH":4957,"BSTAR":0,"MEAN_MOTION_DOT":0,"MEAN_MOTION_DDOT":0},{"OBJECT_NAME":"ASTRA 2F","OBJECT_ID":"2012-051A","EPOCH":"2026-03-14T13:46:41.848608","MEAN_MOTION":1.00272536,"ECCENTRICITY":0.00020343,"INCLINATION":0.0735,"RA_OF_ASC_NODE":256.9139,"ARG_OF_PERICENTER":23.8855,"MEAN_ANOMALY":126.2349,"EPHEMERIS_TYPE":0,"CLASSIFICATION_TYPE":"U","NORAD_CAT_ID":38778,"ELEMENT_SET_NO":999,"REV_AT_EPOCH":4018,"BSTAR":0,"MEAN_MOTION_DOT":1.49e-6,"MEAN_MOTION_DDOT":0},{"OBJECT_NAME":"GSAT-10","OBJECT_ID":"2012-051B","EPOCH":"2026-03-14T14:02:17.852640","MEAN_MOTION":1.00272446,"ECCENTRICITY":0.00050796,"INCLINATION":0.0494,"RA_OF_ASC_NODE":256.0223,"ARG_OF_PERICENTER":184.4125,"MEAN_ANOMALY":25.3436,"EPHEMERIS_TYPE":0,"CLASSIFICATION_TYPE":"U","NORAD_CAT_ID":38779,"ELEMENT_SET_NO":999,"REV_AT_EPOCH":4914,"BSTAR":0,"MEAN_MOTION_DOT":-1.66e-6,"MEAN_MOTION_DDOT":0},{"OBJECT_NAME":"INTELSAT 23 (IS-23)","OBJECT_ID":"2012-057A","EPOCH":"2026-03-14T11:40:46.424352","MEAN_MOTION":1.00269635,"ECCENTRICITY":0.00010659,"INCLINATION":0.0396,"RA_OF_ASC_NODE":255.825,"ARG_OF_PERICENTER":110.6643,"MEAN_ANOMALY":287.7683,"EPHEMERIS_TYPE":0,"CLASSIFICATION_TYPE":"U","NORAD_CAT_ID":38867,"ELEMENT_SET_NO":999,"REV_AT_EPOCH":4900,"BSTAR":0,"MEAN_MOTION_DOT":-2.85e-6,"MEAN_MOTION_DDOT":0},{"OBJECT_NAME":"BEIDOU-2 G6","OBJECT_ID":"2012-059A","EPOCH":"2026-03-14T14:02:32.829216","MEAN_MOTION":1.00275873,"ECCENTRICITY":0.00105152,"INCLINATION":4.1803,"RA_OF_ASC_NODE":74.5315,"ARG_OF_PERICENTER":306.4712,"MEAN_ANOMALY":85.7813,"EPHEMERIS_TYPE":0,"CLASSIFICATION_TYPE":"U","NORAD_CAT_ID":38953,"ELEMENT_SET_NO":999,"REV_AT_EPOCH":4896,"BSTAR":0,"MEAN_MOTION_DOT":-1.74e-6,"MEAN_MOTION_DDOT":0},{"OBJECT_NAME":"LUCH-5B","OBJECT_ID":"2012-061A","EPOCH":"2026-03-14T05:00:29.085408","MEAN_MOTION":1.0027198,"ECCENTRICITY":0.00032173,"INCLINATION":10.2786,"RA_OF_ASC_NODE":50.8054,"ARG_OF_PERICENTER":227.4516,"MEAN_ANOMALY":312.3743,"EPHEMERIS_TYPE":0,"CLASSIFICATION_TYPE":"U","NORAD_CAT_ID":38977,"ELEMENT_SET_NO":999,"REV_AT_EPOCH":4865,"BSTAR":0,"MEAN_MOTION_DOT":-1.32e-6,"MEAN_MOTION_DDOT":0},{"OBJECT_NAME":"YAMAL 300K","OBJECT_ID":"2012-061B","EPOCH":"2026-03-14T09:22:48.926784","MEAN_MOTION":1.00272262,"ECCENTRICITY":1.929e-5,"INCLINATION":0.0124,"RA_OF_ASC_NODE":224.9852,"ARG_OF_PERICENTER":304.6757,"MEAN_ANOMALY":325.984,"EPHEMERIS_TYPE":0,"CLASSIFICATION_TYPE":"U","NORAD_CAT_ID":38978,"ELEMENT_SET_NO":999,"REV_AT_EPOCH":4868,"BSTAR":0,"MEAN_MOTION_DOT":7.0e-7,"MEAN_MOTION_DDOT":0}]
